[{"OBJECT_NAME":"CELESTIS-17 & SHERPA-FX1","OBJECT_ID":"2021-006CB","EPOCH":"2026-03-09T15:26:05.078112","MEAN_MOTION":15.30994801,"ECCENTRICITY":0.000663,"INCLINATION":97.2397,"RA_OF_ASC_NODE":112.1052,"ARG_OF_PERICENTER":178.1385,"MEAN_ANOMALY":181.9882,"EPHEMERIS_TYPE":0,"CLASSIFICATION_TYPE":"U","NORAD_CAT_ID":47486,"ELEMENT_SET_NO":999,"REV_AT_EPOCH":28406,"BSTAR":0.00024301,"MEAN_MOTION_DOT":7.207e-5,"MEAN_MOTION_DDOT":0},{"OBJECT_NAME":"STARLINK-33595","OBJECT_ID":"2025-015J","EPOCH":"2026-03-09T21:16:23.075616","MEAN_MOTION":15.30237201,"ECCENTRICITY":0.00011373,"INCLINATION":53.1613,"RA_OF_ASC_NODE":321.3753,"ARG_OF_PERICENTER":54.0513,"MEAN_ANOMALY":306.0594,"EPHEMERIS_TYPE":0,"CLASSIFICATION_TYPE":"U","NORAD_CAT_ID":62766,"ELEMENT_SET_NO":999,"REV_AT_EPOCH":6451,"BSTAR":0.0018700441,"MEAN_MOTION_DOT":0.00055505,"MEAN_MOTION_DDOT":0}]
